NORAD_CAT_ID,OBJECT_NAME,OBJECT_TYPE,EPOCH,MEAN_MOTION,ECCENTRICITY,INCLINATION,RA_OF_ASC_NODE,ARG_OF_PERICENTER,MEAN_ANOMALY,BSTAR,MEAN_MOTION_DOT,MEAN_MOTION_DDOT,TLE_LINE0,TLE_LINE1,TLE_LINE2,SEMIMAJOR_AXIS,PERIOD,APOGEE,PERIGEE,DECAYED
53161.0,STARLINK-4055,PAYLOAD,2023-11-20 02:40:03,15.08844292,0.0001436,53.2164,337.624,88.3074,271.8083,0.00014725,2.057e-05,0.0,0 STARLINK-4055,1 53161U 22083AF  23324.11115693  .00002057  00000-0  14725-3 0  9998,2 53161  53.2164 337.6240 0001436  88.3074 271.8083 15.08844292 75091,6917.867,95.437,540.726,538.739,0.0
53161.0,STARLINK-4055,PAYLOAD,2023-11-20 07:26:13,15.08849955,0.00014,53.2163,336.7317,91.3614,268.7539,0.00011054,1.472e-05,0.0,0 STARLINK-4055,1 53161U 22083AF  23324.30987392  .00001472  00000-0  11054-3 0  9994,2 53161  53.2163 336.7317 0001400  91.3614 268.7539 15.08849955 74495,6917.85,95.437,540.683,538.746,0.0
53161.0,STARLINK-4055,PAYLOAD,2023-11-20 18:33:55,15.08843269,0.0001512,53.2169,334.6499,95.7304,264.386,0.00010946,1.455e-05,0.0,0 STARLINK-4055,1 53161U 22083AF  23324.77355726  .00001455  00000-0  10946-3 0  9995,2 53161  53.2169 334.6499 0001512  95.7304 264.3860 15.08843269 74566,6917.87,95.437,540.781,538.689,0.0
53161.0,STARLINK-4055,PAYLOAD,2023-11-21 04:06:14,15.08827464,0.0001419,53.2166,332.8659,101.5192,258.5959,0.00057014,8.794e-05,0.0,0 STARLINK-4055,1 53161U 22083AF  23325.17100627  .00008794  00000-0  57014-3 0  9998,2 53161  53.2166 332.8659 0001419 101.5192 258.5959 15.08827464 75258,6917.919,95.438,540.765,538.802,0.0
53161.0,STARLINK-4055,PAYLOAD,2023-11-21 10:27:46,15.08850644,0.0001642,53.2179,331.676,92.0045,268.1135,0.00015981,2.257e-05,0.0,0 STARLINK-4055,1 53161U 22083AF  23325.43595231  .00002257  00000-0  15981-3 0  9991,2 53161  53.2179 331.6760 0001642  92.0045 268.1135 15.08850644 75294,6917.848,95.437,540.849,538.577,0.0
53161.0,STARLINK-4055,PAYLOAD,2023-11-22 03:56:59,15.08870301,0.000144,53.216,328.4052,87.2688,272.8469,0.00053892,8.306e-05,0.0,0 STARLINK-4055,1 53161U 22083AF  23326.16457989  .00008306  00000-0  53892-3 0  9993,2 53161  53.2160 328.4052 0001440  87.2688 272.8469 15.08870301 75404,6917.788,95.436,540.649,538.657,0.0
53161.0,STARLINK-4055,PAYLOAD,2023-11-22 07:07:46,15.0884562,0.0001574,53.2167,327.8109,83.8977,276.2194,-5.7233e-05,-1.199e-05,0.0,0 STARLINK-4055,1 53161U 22083AF  23326.29706552 -.00001199  00000-0 -57233-4 0  9999,2 53161  53.2167 327.8109 0001574  83.8977 276.2194 15.08845620 75429,6917.863,95.437,540.817,538.639,0.0
53161.0,STARLINK-4055,PAYLOAD,2023-11-23 03:47:48,15.08825209,0.00016,53.2169,323.9462,97.2827,262.8347,-0.00033149,-5.558e-05,0.0,0 STARLINK-4055,1 53161U 22083AF  23327.15819623 -.00005558  00000-0 -33149-3 0  9991,2 53161  53.2169 323.9462 0001600  97.2827 262.8347 15.08825209 75559,6917.926,95.438,540.897,538.684,0.0
53161.0,STARLINK-4055,PAYLOAD,2023-11-23 06:58:34,15.08824934,0.0001582,53.2166,323.3509,96.2292,263.888,-0.00027452,-4.653e-05,0.0,0 STARLINK-4055,1 53161U 22083AF  23327.29067690 -.00004653  00000-0 -27452-3 0  9990,2 53161  53.2166 323.3509 0001582  96.2292 263.8880 15.08824934 74945,6917.926,95.439,540.886,538.697,0.0
53161.0,STARLINK-4055,PAYLOAD,2023-11-24 03:38:35,15.08832358,0.0001469,53.2163,319.4861,87.9371,272.1789,7.3934e-05,8.89e-06,0.0,0 STARLINK-4055,1 53161U 22083AF  23328.15180451  .00000889  00000-0  73934-4 0  9999,2 53161  53.2163 319.4861 0001469  87.9371 272.1789 15.08832358 75703,6917.904,95.438,540.785,538.753,0.0
53161.0,STARLINK-4055,PAYLOAD,2023-11-24 10:00:08,15.08840551,0.0001515,53.2157,318.2945,90.7711,269.3455,0.00065608,0.00010169,0.0,0 STARLINK-4055,1 53161U 22083AF  23328.41676674  .00010169  00000-0  65608-3 0  9995,2 53161  53.2157 318.2945 0001515  90.7711 269.3455 15.08840551 75115,6917.879,95.438,540.792,538.696,0.0
53161.0,STARLINK-4055,PAYLOAD,2023-11-25 03:29:23,15.08844928,0.0002123,53.2161,315.021,124.4263,235.693,0.00046285,7.087e-05,0.0,0 STARLINK-4055,1 53161U 22083AF  23329.14540566  .00007087  00000-0  46285-3 0  9991,2 53161  53.2161 315.0210 0002123 124.4263 235.6930 15.08844928 75850,6917.865,95.437,541.199,538.262,0.0
53161.0,STARLINK-4055,PAYLOAD,2023-11-25 08:15:32,15.08856966,0.0001477,53.2156,314.1321,91.5396,268.5766,0.00075805,0.00011803,0.0,0 STARLINK-4055,1 53161U 22083AF  23329.34412494  .00011803  00000-0  75805-3 0  9992,2 53161  53.2156 314.1321 0001477  91.5396 268.5766 15.08856966 75250,6917.829,95.436,540.715,538.672,0.0
53161.0,STARLINK-4055,PAYLOAD,2023-11-25 22:33:58,15.08920264,0.0001358,53.2149,311.4512,123.1865,236.9257,0.0025804,0.00041109,0.0,0 STARLINK-4055,1 53161U 22083AF  23329.94026098  .00041109  00000-0  25804-2 0  9994,2 53161  53.2149 311.4512 0001358 123.1865 236.9257 15.08920264 75342,6917.635,95.432,540.439,538.561,0.0
53161.0,STARLINK-4055,PAYLOAD,2023-11-26 03:20:07,15.0886213,0.000201,53.2171,310.5623,117.1442,242.9756,7.0376e-05,8.33e-06,0.0,0 STARLINK-4055,1 53161U 22083AF  23330.13897994  .00000833  00000-0  70376-4 0  9993,2 53161  53.2171 310.5623 0002010 117.1442 242.9756 15.08862130 76002,6917.813,95.436,541.068,538.287,0.0
53161.0,STARLINK-4055,PAYLOAD,2023-11-26 06:30:54,15.08841916,0.0001662,53.2173,309.967,89.9424,270.1759,-0.00086878,-0.00014089,0.0,0 STARLINK-4055,1 53161U 22083AF  23330.27146652 -.00014089  00000-0 -86878-3 0  9999,2 53161  53.2173 309.9670 0001662  89.9424 270.1759 15.08841916 76023,6917.875,95.437,540.889,538.59,0.0
53161.0,STARLINK-4055,PAYLOAD,2023-11-26 22:24:47,15.08814873,0.0001391,53.2157,306.9959,98.0477,262.0673,-0.00074899,-0.0001218,0.0,0 STARLINK-4055,1 53161U 22083AF  23330.93388496 -.00012180  00000-0 -74899-3 0  9996,2 53161  53.2157 306.9959 0001391  98.0477 262.0673 15.08814873 75497,6917.957,95.439,540.784,538.86,0.0
53161.0,STARLINK-4055,PAYLOAD,2023-11-27 03:10:57,15.08799804,0.0001362,53.2159,306.1035,90.4803,269.6345,-6.8557e-05,-1.378e-05,0.0,0 STARLINK-4055,1 53161U 22083AF  23331.13261312 -.00001378  00000-0 -68557-4 0  9998,2 53161  53.2159 306.1035 0001362  90.4803 269.6345 15.08799804 76152,6918.003,95.44,540.81,538.926,0.0
53161.0,STARLINK-4055,PAYLOAD,2023-11-27 04:46:21,15.08795338,0.000133,53.2159,305.8063,97.403,262.7113,0.00089092,0.00013902,0.0,0 STARLINK-4055,1 53161U 22083AF  23331.19885688  .00013902  00000-0  89092-3 0  9992,2 53161  53.2159 305.8063 0001330  97.4030 262.7113 15.08795338 75539,6918.017,95.44,540.802,538.962,0.0
53161.0,STARLINK-4055,PAYLOAD,2023-11-28 03:01:45,15.08867571,0.0001427,53.2166,301.6423,110.5365,249.578,0.0023937,0.00038042,0.0,0 STARLINK-4055,1 53161U 22083AF  23332.12622016  .00038042  00000-0  23937-2 0  9997,2 53161  53.2166 301.6423 0001427 110.5365 249.5780 15.08867571 76304,6917.796,95.436,540.648,538.674,0.0
53161.0,STARLINK-4055,PAYLOAD,2023-11-28 04:37:08,15.08868959,0.0001393,53.2164,301.3449,102.8594,257.2553,0.0020957,0.00033249,0.0,0 STARLINK-4055,1 53161U 22083AF  23332.19245916  .00033249  00000-0  20957-2 0  9997,2 53161  53.2164 301.3449 0001393 102.8594 257.2553 15.08868959 75682,6917.792,95.436,540.621,538.693,0.0
53161.0,STARLINK-4055,PAYLOAD,2023-11-28 22:06:22,15.08875237,0.000153,53.2169,298.0742,102.2224,257.8939,0.0020735,0.00032898,0.0,0 STARLINK-4055,1 53161U 22083AF  23332.92109561  .00032898  00000-0  20735-2 0  9996,2 53161  53.2169 298.0742 0001530 102.2224 257.8939 15.08875237 75795,6917.773,95.435,540.696,538.579,0.0
53161.0,STARLINK-4055,PAYLOAD,2023-11-29 02:52:31,15.08869985,0.0001307,53.2169,297.1804,94.7894,265.3247,0.0011107,0.00017447,0.0,0 STARLINK-4055,1 53161U 22083AF  23333.11981320  .00017447  00000-0  11107-2 0  9995,2 53161  53.2169 297.1804 0001307  94.7894 265.3247 15.08869985 76457,6917.789,95.436,540.558,538.75,0.0
53161.0,STARLINK-4055,PAYLOAD,2023-11-29 07:38:41,15.08872187,0.0001347,53.2171,296.2891,98.0979,262.0166,0.0014415,0.00022748,0.0,0 STARLINK-4055,1 53161U 22083AF  23333.31853036  .00022748  00000-0  14415-2 0  9994,2 53161  53.2171 296.2891 0001347  98.0979 262.0166 15.08872187 75856,6917.782,95.436,540.579,538.715,0.0
53161.0,STARLINK-4055,PAYLOAD,2023-11-30 02:43:18,15.0885238,0.0001914,53.2176,292.7127,117.7653,242.3533,0.0010238,0.00016049,0.0,0 STARLINK-4055,1 53161U 22083AF  23334.11341084  .00016049  00000-0  10238-2 0  9994,2 53161  53.2176 292.7127 0001914 117.7653 242.3533 15.08852380 76608,6917.843,95.437,541.032,538.383,0.0
53161.0,STARLINK-4055,PAYLOAD,2023-11-30 04:18:41,15.0885048,0.00019,53.219,292.4249,112.5909,247.5285,0.00037703,5.719e-05,0.0,0 STARLINK-4055,1 53161U 22083AF  23334.17965146  .00005719  00000-0  37703-3 0  9990,2 53161  53.2190 292.4249 0001900 112.5909 247.5285 15.08850480 76619,6917.848,95.437,541.028,538.399,0.0
53161.0,STARLINK-4055,PAYLOAD,2023-12-01 04:09:29,15.08843231,0.0001832,53.2189,287.968,116.8382,243.2798,0.00031778,4.773e-05,0.0,0 STARLINK-4055,1 53161U 22083AF  23335.17325450  .00004773  00000-0  31778-3 0  9994,2 53161  53.2189 287.9680 0001832 116.8382 243.2798 15.08843231 76765,6917.871,95.437,541.003,538.468,0.0
53161.0,STARLINK-4055,PAYLOAD,2023-12-02 07:11:01,15.08891675,0.0001826,53.2179,282.8995,78.0792,282.0405,0.0020785,0.00032994,0.0,0 STARLINK-4055,1 53161U 22083AF  23336.29932178  .00032994  00000-0  20785-2 0  9990,2 53161  53.2179 282.8995 0001826  78.0792 282.0405 15.08891675 76934,6917.722,95.434,540.851,538.324,0.0
53161.0,STARLINK-4055,PAYLOAD,2023-12-03 03:51:03,15.08817975,0.0001262,53.2174,279.047,84.9364,275.1772,-0.00049517,-8.155e-05,0.0,0 STARLINK-4055,1 53161U 22083AF  23337.16045701 -.00008155  00000-0 -49517-3 0  9993,2 53161  53.2174 279.0470 0001262  84.9364 275.1772 15.08817975 77066,6917.948,95.439,540.686,538.94,0.0
53161.0,STARLINK-4055,PAYLOAD,2023-12-04 03:41:51,15.08854131,0.0001408,53.216,274.5852,72.2359,287.8787,0.0012967,0.00020417,0.0,0 STARLINK-4055,1 53161U 22083AF  23338.15406334  .00020417  00000-0  12967-2 0  9997,2 53161  53.2160 274.5852 0001408  72.2359 287.8787 15.08854131 77219,6917.837,95.437,540.676,538.728,0.0
